[{"OBJECT_NAME":"STARLINK-5000","OBJECT_ID":"2022-119BB","EPOCH":"2024-10-27T20:55:20.745696","MEAN_MOTION":15.08847912,"ECCENTRICITY":0.0001812,"INCLINATION":53.2176,"RA_OF_ASC_NODE":3.7861,"ARG_OF_PERICENTER":82.5324,"MEAN_ANOMALY":277.5874,"EPHEMERIS_TYPE":0,"CLASSIFICATION_TYPE":"U","NORAD_CAT_ID":53935,"ELEMENT_SET_NO":999,"REV_AT_EPOCH":11660,"BSTAR":0.00020274,"MEAN_MOTION_DOT":2.941e-5,"MEAN_MOTION_DDOT":0},{"OBJECT_NAME":"STARLINK-4791","OBJECT_ID":"2022-119BC","EPOCH":"2024-10-27T14:16:32.880000","MEAN_MOTION":15.08859441,"ECCENTRICITY":0.0001586,"INCLINATION":53.2193,"RA_OF_ASC_NODE":14.8904,"ARG_OF_PERICENTER":96.1362,"MEAN_ANOMALY":263.9811,"EPHEMERIS_TYPE":0,"CLASSIFICATION_TYPE":"U","NORAD_CAT_ID":53936,"ELEMENT_SET_NO":999,"REV_AT_EPOCH":11642,"BSTAR":0.00031764,"MEAN_MOTION_DOT":4.773e-5,"MEAN_MOTION_DDOT":0},{"OBJECT_NAME":"STARLINK-4765","OBJECT_ID":"2022-119BD","EPOCH":"2024-10-27T14:41:05.830656","MEAN_MOTION":15.08846691,"ECCENTRICITY":0.0001341,"INCLINATION":53.219,"RA_OF_ASC_NODE":10.0116,"ARG_OF_PERICENTER":89.1467,"MEAN_ANOMALY":270.9679,"EPHEMERIS_TYPE":0,"CLASSIFICATION_TYPE":"U","NORAD_CAT_ID":53937,"ELEMENT_SET_NO":999,"REV_AT_EPOCH":11649,"BSTAR":9.429e-5,"MEAN_MOTION_DOT":1.213e-5,"MEAN_MOTION_DDOT":0},{"OBJECT_NAME":"STARLINK-4633","OBJECT_ID":"2022-125A","EPOCH":"2024-10-27T09:21:52.048800","MEAN_MOTION":15.0884862,"ECCENTRICITY":0.0001388,"INCLINATION":53.218,"RA_OF_ASC_NODE":301.2265,"ARG_OF_PERICENTER":84.1864,"MEAN_ANOMALY":275.9287,"EPHEMERIS_TYPE":0,"CLASSIFICATION_TYPE":"U","NORAD_CAT_ID":53964,"ELEMENT_SET_NO":999,"REV_AT_EPOCH":11409,"BSTAR":0.00010261,"MEAN_MOTION_DOT":1.346e-5,"MEAN_MOTION_DDOT":0},{"OBJECT_NAME":"STARLINK-4578","OBJECT_ID":"2022-125B","EPOCH":"2024-10-27T09:17:54.187872","MEAN_MOTION":15.08892264,"ECCENTRICITY":0.0002018,"INCLINATION":53.2176,"RA_OF_ASC_NODE":301.2087,"ARG_OF_PERICENTER":105.589,"MEAN_ANOMALY":254.5325,"EPHEMERIS_TYPE":0,"CLASSIFICATION_TYPE":"U","NORAD_CAT_ID":53965,"ELEMENT_SET_NO":999,"REV_AT_EPOCH":11409,"BSTAR":0.00047564,"MEAN_MOTION_DOT":7.301e-5,"MEAN_MOTION_DDOT":0},{"OBJECT_NAME":"STARLINK-4635","OBJECT_ID":"2022-125C","EPOCH":"2024-10-27T17:08:11.312448","MEAN_MOTION":15.08839678,"ECCENTRICITY":0.0001699,"INCLINATION":53.2177,"RA_OF_ASC_NODE":299.6961,"ARG_OF_PERICENTER":94.5524,"MEAN_ANOMALY":265.5662,"EPHEMERIS_TYPE":0,"CLASSIFICATION_TYPE":"U","NORAD_CAT_ID":53966,"ELEMENT_SET_NO":999,"REV_AT_EPOCH":11421,"BSTAR":5.4434e-5,"MEAN_MOTION_DOT":5.78e-6,"MEAN_MOTION_DDOT":0},{"OBJECT_NAME":"STARLINK-4634","OBJECT_ID":"2022-125D","EPOCH":"2024-10-27T17:02:51.340416","MEAN_MOTION":15.0885998,"ECCENTRICITY":0.0001352,"INCLINATION":53.2175,"RA_OF_ASC_NODE":299.6718,"ARG_OF_PERICENTER":105.1124,"MEAN_ANOMALY":255.0018,"EPHEMERIS_TYPE":0,"CLASSIFICATION_TYPE":"U","NORAD_CAT_ID":53967,"ELEMENT_SET_NO":999,"REV_AT_EPOCH":11421,"BSTAR":0.00013271,"MEAN_MOTION_DOT":1.826e-5,"MEAN_MOTION_DDOT":0},{"OBJECT_NAME":"STARLINK-4629","OBJECT_ID":"2022-125E","EPOCH":"2024-10-27T16:46:57.525888","MEAN_MOTION":15.08845453,"ECCENTRICITY":0.0001559,"INCLINATION":53.2162,"RA_OF_ASC_NODE":299.6024,"ARG_OF_PERICENTER":86.0244,"MEAN_ANOMALY":274.0927,"EPHEMERIS_TYPE":0,"CLASSIFICATION_TYPE":"U","NORAD_CAT_ID":53968,"ELEMENT_SET_NO":999,"REV_AT_EPOCH":11421,"BSTAR":0.0001423,"MEAN_MOTION_DOT":1.978e-5,"MEAN_MOTION_DDOT":0},{"OBJECT_NAME":"STARLINK-4468","OBJECT_ID":"2022-125F","EPOCH":"2024-10-27T07:25:16.313376","MEAN_MOTION":15.08812143,"ECCENTRICITY":0.0001848,"INCLINATION":53.2174,"RA_OF_ASC_NODE":301.4356,"ARG_OF_PERICENTER":109.3012,"MEAN_ANOMALY":250.818,"EPHEMERIS_TYPE":0,"CLASSIFICATION_TYPE":"U","NORAD_CAT_ID":53969,"ELEMENT_SET_NO":999,"REV_AT_EPOCH":11408,"BSTAR":0.00026106,"MEAN_MOTION_DOT":3.866e-5,"MEAN_MOTION_DDOT":0},{"OBJECT_NAME":"STARLINK-4567","OBJECT_ID":"2022-125G","EPOCH":"2024-10-27T09:03:57.228480","MEAN_MOTION":15.08837607,"ECCENTRICITY":0.0001654,"INCLINATION":53.2167,"RA_OF_ASC_NODE":296.1652,"ARG_OF_PERICENTER":88.9775,"MEAN_ANOMALY":271.1407,"EPHEMERIS_TYPE":0,"CLASSIFICATION_TYPE":"U","NORAD_CAT_ID":53970,"ELEMENT_SET_NO":999,"REV_AT_EPOCH":11417,"BSTAR":-0.00011455,"MEAN_MOTION_DOT":-2.111e-5,"MEAN_MOTION_DDOT":0},{"OBJECT_NAME":"STARLINK-4639","OBJECT_ID":"2022-125H","EPOCH":"2024-10-27T07:19:56.997120","MEAN_MOTION":15.08846812,"ECCENTRICITY":0.0001677,"INCLINATION":53.2165,"RA_OF_ASC_NODE":301.4128,"ARG_OF_PERICENTER":105.6364,"MEAN_ANOMALY":254.4813,"EPHEMERIS_TYPE":0,"CLASSIFICATION_TYPE":"U","NORAD_CAT_ID":53971,"ELEMENT_SET_NO":999,"REV_AT_EPOCH":11408,"BSTAR":0.0001786,"MEAN_MOTION_DOT":2.556e-5,"MEAN_MOTION_DDOT":0},{"OBJECT_NAME":"STARLINK-5156","OBJECT_ID":"2022-125K","EPOCH":"2024-10-27T16:41:39.166944","MEAN_MOTION":15.08839205,"ECCENTRICITY":0.0001515,"INCLINATION":53.2168,"RA_OF_ASC_NODE":299.5775,"ARG_OF_PERICENTER":95.7326,"MEAN_ANOMALY":264.3838,"EPHEMERIS_TYPE":0,"CLASSIFICATION_TYPE":"U","NORAD_CAT_ID":53973,"ELEMENT_SET_NO":999,"REV_AT_EPOCH":11421,"BSTAR":4.4141e-5,"MEAN_MOTION_DOT":4.15e-6,"MEAN_MOTION_DDOT":0},{"OBJECT_NAME":"STARLINK-5159","OBJECT_ID":"2022-125L","EPOCH":"2024-10-27T07:59:37.726656","MEAN_MOTION":15.0885867,"ECCENTRICITY":0.0002673,"INCLINATION":53.2171,"RA_OF_ASC_NODE":280.9307,"ARG_OF_PERICENTER":89.1476,"MEAN_ANOMALY":270.9822,"EPHEMERIS_TYPE":0,"CLASSIFICATION_TYPE":"U","NORAD_CAT_ID":53974,"ELEMENT_SET_NO":999,"REV_AT_EPOCH":11437,"BSTAR":9.5087e-5,"MEAN_MOTION_DOT":1.226e-5,"MEAN_MOTION_DDOT":0},{"OBJECT_NAME":"STARLINK-5137","OBJECT_ID":"2022-125M","EPOCH":"2024-10-27T06:24:54.250848","MEAN_MOTION":15.08842566,"ECCENTRICITY":0.0001559,"INCLINATION":53.2165,"RA_OF_ASC_NODE":296.2009,"ARG_OF_PERICENTER":96.0829,"MEAN_ANOMALY":264.0341,"EPHEMERIS_TYPE":0,"CLASSIFICATION_TYPE":"U","NORAD_CAT_ID":53975,"ELEMENT_SET_NO":999,"REV_AT_EPOCH":11415,"BSTAR":7.2188e-5,"MEAN_MOTION_DOT":8.61e-6,"MEAN_MOTION_DDOT":0},{"OBJECT_NAME":"STARLINK-5134","OBJECT_ID":"2022-125N","EPOCH":"2024-10-27T15:30:08.745984","MEAN_MOTION":15.08846312,"ECCENTRICITY":0.0001242,"INCLINATION":53.2166,"RA_OF_ASC_NODE":280.0351,"ARG_OF_PERICENTER":78.9356,"MEAN_ANOMALY":281.1776,"EPHEMERIS_TYPE":0,"CLASSIFICATION_TYPE":"U","NORAD_CAT_ID":53976,"ELEMENT_SET_NO":999,"REV_AT_EPOCH":11448,"BSTAR":0.00011486,"MEAN_MOTION_DOT":1.541e-5,"MEAN_MOTION_DDOT":0},{"OBJECT_NAME":"STARLINK-5094","OBJECT_ID":"2022-125P","EPOCH":"2024-10-27T17:11:29.113152","MEAN_MOTION":15.08866874,"ECCENTRICITY":0.0001537,"INCLINATION":53.2165,"RA_OF_ASC_NODE":294.7192,"ARG_OF_PERICENTER":96.5815,"MEAN_ANOMALY":263.5352,"EPHEMERIS_TYPE":0,"CLASSIFICATION_TYPE":"U","NORAD_CAT_ID":53977,"ELEMENT_SET_NO":999,"REV_AT_EPOCH":11428,"BSTAR":0.00080495,"MEAN_MOTION_DOT":0.00012555,"MEAN_MOTION_DDOT":0},{"OBJECT_NAME":"STARLINK-5148","OBJECT_ID":"2022-125Q","EPOCH":"2024-10-27T16:44:57.994944","MEAN_MOTION":15.08844074,"ECCENTRICITY":0.0001629,"INCLINATION":53.2164,"RA_OF_ASC_NODE":294.6046,"ARG_OF_PERICENTER":85.0096,"MEAN_ANOMALY":275.1082,"EPHEMERIS_TYPE":0,"CLASSIFICATION_TYPE":"U","NORAD_CAT_ID":53978,"ELEMENT_SET_NO":999,"REV_AT_EPOCH":11428,"BSTAR":4.2179e-5,"MEAN_MOTION_DOT":3.83e-6,"MEAN_MOTION_DDOT":0}]