STARLINK-5000           
1 53935U 22119BB  24301.87176789  .00002941  00000+0  20274-3 0  9996
2 53935  53.2176   3.7861 0001812  82.5324 277.5874 15.08847912116601
STARLINK-4791           
1 53936U 22119BC  24301.59482500  .00004773  00000+0  31764-3 0  9998
2 53936  53.2193  14.8904 0001586  96.1362 263.9811 15.08859441116423
STARLINK-4765           
1 53937U 22119BD  24301.61187304  .00001213  00000+0  94290-4 0  9996
2 53937  53.2190  10.0116 0001341  89.1467 270.9679 15.08846691116491
STARLINK-4633           
1 53964U 22125A   24301.39018575  .00001346  00000+0  10261-3 0  9993
2 53964  53.2180 301.2265 0001388  84.1864 275.9287 15.08848620114095
STARLINK-4578           
1 53965U 22125B   24301.38743273  .00007301  00000+0  47564-3 0  9996
2 53965  53.2176 301.2087 0002018 105.5890 254.5325 15.08892264114090
STARLINK-4635           
1 53966U 22125C   24301.71401982  .00000578  00000+0  54434-4 0  9996
2 53966  53.2177 299.6961 0001699  94.5524 265.5662 15.08839678114218
STARLINK-4634           
1 53967U 22125D   24301.71031644  .00001826  00000+0  13271-3 0  9991
2 53967  53.2175 299.6718 0001352 105.1124 255.0018 15.08859980114215
STARLINK-4629           
1 53968U 22125E   24301.69927692  .00001978  00000+0  14230-3 0  9990
2 53968  53.2162 299.6024 0001559  86.0244 274.0927 15.08845453114211
STARLINK-4468           
1 53969U 22125F   24301.30921659  .00003866  00000+0  26106-3 0  9999
2 53969  53.2174 301.4356 0001848 109.3012 250.8180 15.08812143114086
STARLINK-4567           
1 53970U 22125G   24301.37774570 -.00002111  00000+0 -11455-3 0  9991
2 53970  53.2167 296.1652 0001654  88.9775 271.1407 15.08837607114172
STARLINK-4639           
1 53971U 22125H   24301.30552080  .00002556  00000+0  17860-3 0  9992
2 53971  53.2165 301.4128 0001677 105.6364 254.4813 15.08846812114088
STARLINK-5156           
1 53973U 22125K   24301.69559221  .00000415  00000+0  44141-4 0  9995
2 53973  53.2168 299.5775 0001515  95.7326 264.3838 15.08839205114216
STARLINK-5159           
1 53974U 22125L   24301.33307554  .00001226  00000+0  95087-4 0  9993
2 53974  53.2171 280.9307 0002673  89.1476 270.9822 15.08858670114375
STARLINK-5137           
1 53975U 22125M   24301.26729457  .00000861  00000+0  72188-4 0  9997
2 53975  53.2165 296.2009 0001559  96.0829 264.0341 15.08842566114152
STARLINK-5134           
1 53976U 22125N   24301.64593456  .00001541  00000+0  11486-3 0  9997
2 53976  53.2166 280.0351 0001242  78.9356 281.1776 15.08846312114489
STARLINK-5094           
1 53977U 22125P   24301.71630918  .00012555  00000+0  80495-3 0  9994
2 53977  53.2165 294.7192 0001537  96.5815 263.5352 15.08866874114284
STARLINK-5148           
1 53978U 22125Q   24301.69789346  .00000383  00000+0  42179-4 0  9996
2 53978  53.2164 294.6046 0001629  85.0096 275.1082 15.08844074114284
